     2.10           GLONASS NAV DATA                        RINEX VERSION / TYPE
RTKCONV 2.4.2                           20130606 062116 UTC PGM / RUN BY / DATE 
log: C:\Documents and Settings\engineer\RTKli  COMMENT             
format: NVS BINR                                            COMMENT             
                                                            END OF HEADER       
13 13  6  5 14 45  0.0 -.394001603127E-03 -.909494701773E-12  .531000000000E+05
     .116745449219E+05 -.720701217651E-01 -.279396772385E-08  .000000000000E+00
     .223842622070E+05 -.538159370422E+00  .186264514923E-08 -.200000000000E+01
    -.365268652344E+04 -.355299282074E+01 -.931322574615E-09  .000000000000E+00
15 13  6  5 14 45  0.0  .637117773294E-05  .000000000000E+00  .531000000000E+05
     .105594067383E+05  .166872310638E+01  .000000000000E+00  .000000000000E+00
    -.251843798828E+04  .269037151337E+01 -.279396772385E-08  .000000000000E+00
     .230894750977E+05 -.460338592529E+00 -.931322574615E-09  .000000000000E+00
24 13  6  5 14 45  0.0 -.947061926126E-04  .000000000000E+00  .531000000000E+05
     .838393261719E+04 -.299678707123E+01  .000000000000E+00  .000000000000E+00
     .101229335938E+05 -.116767883301E-01 -.931322574615E-09  .200000000000E+01
     .218424951172E+05  .115532588959E+01 -.186264514923E-08  .000000000000E+00
23 13  6  5 14 45  0.0 -.517869353294E-03 -.272848410532E-11  .531000000000E+05
    -.105118608398E+05 -.287138748169E+01  .000000000000E+00  .000000000000E+00
     .100117568359E+05  .120053291321E+00  .000000000000E+00  .300000000000E+01
     .209728183594E+05 -.149615478516E+01 -.279396772385E-08  .000000000000E+00
17 13  6  5 14 45  0.0  .726860016584E-04  .909494701773E-12  .531000000000E+05
     .232406430664E+05 -.132328414917E+01 -.931322574615E-09  .000000000000E+00
     .423312158203E+04 -.150141716003E+00 -.186264514923E-08  .400000000000E+01
     .968595751953E+04  .324792766571E+01  .000000000000E+00  .000000000000E+00
 7 13  6  5 14 45  0.0 -.635981559753E-04  .000000000000E+00  .531000000000E+05
    -.108863989258E+05  .152438068390E+01  .186264514923E-08  .000000000000E+00
    -.277818652344E+04 -.273437118530E+01 -.931322574615E-09  .500000000000E+01
     .229375712891E+05  .391493797302E+00 -.186264514923E-08  .000000000000E+00
 8 13  6  5 14 45  0.0 -.181738287210E-04  .000000000000E+00  .531000000000E+05
    -.155806889648E+05  .107002067566E+01  .000000000000E+00  .000000000000E+00
     .140083906250E+05 -.167986297607E+01  .186264514923E-08  .600000000000E+01
     .145875107422E+05  .276894283295E+01 -.279396772385E-08  .000000000000E+00
16 13  6  5 14 45  0.0 -.251270830631E-05  .000000000000E+00  .531000000000E+05
    -.516616210938E+03  .118443012238E+01  .186264514923E-08  .000000000000E+00
    -.176475556641E+05  .223674964905E+01 -.372529029846E-08 -.100000000000E+01
     .184087578125E+05  .216434383392E+01  .000000000000E+00  .000000000000E+00
14 13  6  5 15 15  0.0 -.469386577606E-05 -.181898940355E-11  .549000000000E+05
     .176619980469E+05  .807208061218E+00 -.186264514923E-08  .000000000000E+00
     .168231889648E+05  .645233154297E+00  .931322574615E-09 -.700000000000E+01
     .730750683594E+04 -.343064308167E+01 -.931322574615E-09  .000000000000E+00
16 13  6  5 15 15  0.0 -.251177698374E-05  .000000000000E+00  .549000000000E+05
     .215168457031E+04  .177126979828E+01  .931322574615E-09  .000000000000E+00
    -.134551679688E+05  .237231445312E+01 -.372529029846E-08 -.100000000000E+01
     .215420083008E+05  .129414272308E+01  .000000000000E+00  .000000000000E+00
15 13  6  5 15 15  0.0  .637210905552E-05  .000000000000E+00  .549000000000E+05
     .138153300781E+05  .191034030914E+01  .000000000000E+00  .000000000000E+00
     .193559375000E+04  .222296524048E+01 -.186264514923E-08  .000000000000E+00
     .213802636719E+05 -.142620277405E+01 -.931322574615E-09  .000000000000E+00
24 13  6  5 15 15  0.0 -.947080552578E-04  .000000000000E+00  .549000000000E+05
     .282421826172E+04 -.312893772125E+01  .000000000000E+00  .000000000000E+00
     .105173291016E+05  .453476905823E+00  .000000000000E+00  .200000000000E+01
     .230493637695E+05  .176925659180E+00 -.279396772385E-08  .000000000000E+00
23 13  6  5 15 15  0.0 -.517875909805E-03 -.272848410532E-11  .549000000000E+05
    -.152530986328E+05 -.235476875305E+01  .931322574615E-09  .000000000000E+00
     .105633608398E+05  .467061042786E+00  .931322574615E-09  .300000000000E+01
     .175037304688E+05 -.233336353302E+01 -.279396772385E-08  .000000000000E+00
17 13  6  5 15 15  0.0  .726897269487E-04  .181898940355E-11  .549000000000E+05
     .201698144531E+05 -.205795001984E+01 -.931322574615E-09  .000000000000E+00
     .421079150391E+04  .157717704773E+00 -.186264514923E-08  .400000000000E+01
     .150835268555E+05  .271059417725E+01 -.931322574615E-09  .000000000000E+00
 7 13  6  5 15 15  0.0 -.635990872979E-04  .000000000000E+00  .549000000000E+05
    -.850524853516E+04  .110060977936E+01  .186264514923E-08  .000000000000E+00
    -.789506250000E+04 -.290382099152E+01 -.279396772385E-08  .500000000000E+01
     .227500195312E+05 -.598587036133E+00 -.931322574615E-09  .000000000000E+00
 8 13  6  5 15 15  0.0 -.181738287210E-04  .000000000000E+00  .549000000000E+05
    -.136580976562E+05  .102490234375E+01  .000000000000E+00  .000000000000E+00
     .103415839844E+05 -.237172794342E+01  .931322574615E-09  .600000000000E+01
     .189452236328E+05  .204181289673E+01 -.279396772385E-08  .000000000000E+00
18 13  6  5 15 15  0.0 -.692317262292E-04 -.181898940355E-11  .549000000000E+05
     .250593657227E+05  .158782958984E+00 -.931322574615E-09  .000000000000E+00
    -.424301562500E+04 -.198613166809E+00 -.186264514923E-08 -.300000000000E+01
    -.132080419922E+04  .358137798309E+01  .931322574615E-09  .000000000000E+00
